{"type": "FeatureCollection", "features": [ {"type": "Feature", "properties": {"norad_id": 66989, "name": "CZ-4B R/B", "group": "last-30-days", "lat": 8.395508317247566, "lon": -111.86288876776803, "alt_km": 428.52243200381963, "timestamp": "2025-12-26T15:29:38.169622+00:00", "meta": {"OBJECT_NAME": "CZ-4B R/B", "OBJECT_ID": "2025-289B", "EPOCH": "2025-12-26T07:06:41.279904", "MEAN_MOTION": 15.70563405, "ECCENTRICITY": 0.01385671, "INCLINATION": 97.523, "RA_OF_ASC_NODE": 66.6435, "ARG_OF_PERICENTER": 311.4558, "MEAN_ANOMALY": 47.4869, "EPHEMERIS_TYPE": 0, "CLASSIFICATION_TYPE": "U", "NORAD_CAT_ID": 66989, "ELEMENT_SET_NO": 999, "REV_AT_EPOCH": 269, "BSTAR": 0.00057330468, "MEAN_MOTION_DOT": 0.00124556, "MEAN_MOTION_DDOT": 6.802872e-06}, "tle": {"line1": "1 66989U 25289B   25360.29631111  .00124556  68029-5  57330-3 0  9998", "line2": "2 66989  97.5230  66.6435 0138567 311.4558  47.4869 15.70563405  2694"}}, "geometry": {"type": "Point", "coordinates": [-111.86288876776803, 8.395508317247566]}}, {"type": "Feature", "properties": {"norad_id": 66990, "name": "TJS-22", "group": "last-30-days", "lat": 1.8534185081303374, "lon": 34.27880196611575, "alt_km": 35794.25452566875, "timestamp": "2025-12-26T15:29:38.169634+00:00", "meta": {"OBJECT_NAME": "TJS-22", "OBJECT_ID": "2025-290A", "EPOCH": "2025-12-25T08:20:17.431872", "MEAN_MOTION": 1.00271568, "ECCENTRICITY": 0.00033871, "INCLINATION": 1.9567, "RA_OF_ASC_NODE": 285.0409, "ARG_OF_PERICENTER": 343.2156, "MEAN_ANOMALY": 17.3747, "EPHEMERIS_TYPE": 0, "CLASSIFICATION_TYPE": "U", "NORAD_CAT_ID": 66990, "ELEMENT_SET_NO": 999, "REV_AT_EPOCH": 28, "BSTAR": 0, "MEAN_MOTION_DOT": 1.5e-07, "MEAN_MOTION_DDOT": 0}, "tle": {"line1": "1 66990U 25290A   25359.34742398  .00000015  00000+0  00000+0 0  9996", "line2": "2 66990   1.9567 285.0409 0003387 343.2156  17.3747  1.00271568   282"}}, "geometry": {"type": "Point", "coordinates": [34.27880196611575, 1.8534185081303374]}}, {"type": "Feature", "properties": {"norad_id": 66991, "name": "CZ-3B R/B", "group": "last-30-days", "lat": 7.413863353656783, "lon": -49.958928795229085, "alt_km": 33678.4961416941, "timestamp": "2025-12-26T15:29:38.169649+00:00", "meta": {"OBJECT_NAME": "CZ-3B R/B", "OBJECT_ID": "2025-290B", "EPOCH": "2025-12-15T17:23:33.043200", "MEAN_MOTION": 2.38388611, "ECCENTRICITY": 0.7240884, "INCLINATION": 28.4636, "RA_OF_ASC_NODE": 300.4666, "ARG_OF_PERICENTER": 182.7002, "MEAN_ANOMALY": 168.625, "EPHEMERIS_TYPE": 0, "CLASSIFICATION_TYPE": "U", "NORAD_CAT_ID": 66991, "ELEMENT_SET_NO": 999, "REV_AT_EPOCH": 16, "BSTAR": 0.00075879, "MEAN_MOTION_DOT": 0.00057911, "MEAN_MOTION_DDOT": -2.0514e-07}, "tle": {"line1": "1 66991U 25290B   25349.72468800  .00057911 -20514-6  75879-3 0  9998", "line2": "2 66991  28.4636 300.4666 7240884 182.7002 168.6250  2.38388611   165"}}, "geometry": {"type": "Point", "coordinates": [-49.958928795229085, 7.413863353656783]}}, {"type": "Feature", "properties": {"norad_id": 66993, "name": "2025-292A", "group": "last-30-days", "lat": 27.86077876540604, "lon": 68.98648010263008, "alt_km": 561.486504882766, "timestamp": "2025-12-26T15:29:38.169659+00:00", "meta": {"OBJECT_NAME": "2025-292A", "OBJECT_ID": "2025-292A", "EPOCH": "2025-12-26T05:47:32.252928", "MEAN_MOTION": 15.04595728, "ECCENTRICITY": 0.00147066, "INCLINATION": 97.6492, "RA_OF_ASC_NODE": 72.6601, "ARG_OF_PERICENTER": 223.9317, "MEAN_ANOMALY": 136.0741, "EPHEMERIS_TYPE": 0, "CLASSIFICATION_TYPE": "U", "NORAD_CAT_ID": 66993, "ELEMENT_SET_NO": 999, "REV_AT_EPOCH": 242, "BSTAR": 0.00031155034, "MEAN_MOTION_DOT": 4.321e-05, "MEAN_MOTION_DDOT": 0}, "tle": {"line1": "1 66993U 25292A   25360.24134552  .00004321  00000+0  31155-3 0  9992", "line2": "2 66993  97.6492  72.6601 0014706 223.9317 136.0741 15.04595728  2425"}}, "geometry": {"type": "Point", "coordinates": [68.98648010263008, 27.86077876540604]}}, {"type": "Feature", "properties": {"norad_id": 66994, "name": "2025-292B", "group": "last-30-days", "lat": 30.498155584332753, "lon": 68.52226930472686, "alt_km": 560.8522856615609, "timestamp": "2025-12-26T15:29:38.169669+00:00", "meta": {"OBJECT_NAME": "2025-292B", "OBJECT_ID": "2025-292B", "EPOCH": "2025-12-26T02:35:19.114368", "MEAN_MOTION": 15.04644108, "ECCENTRICITY": 0.00144838, "INCLINATION": 97.6502, "RA_OF_ASC_NODE": 72.5307, "ARG_OF_PERICENTER": 224.6876, "MEAN_ANOMALY": 135.3184, "EPHEMERIS_TYPE": 0, "CLASSIFICATION_TYPE": "U", "NORAD_CAT_ID": 66994, "ELEMENT_SET_NO": 999, "REV_AT_EPOCH": 240, "BSTAR": 0.00034590708, "MEAN_MOTION_DOT": 4.811e-05, "MEAN_MOTION_DDOT": 0}, "tle": {"line1": "1 66994U 25292B   25360.10786012  .00004811  00000+0  34591-3 0  9993", "line2": "2 66994  97.6502  72.5307 0014483 224.6876 135.3184 15.04644108  2408"}}, "geometry": {"type": "Point", "coordinates": [68.52226930472686, 30.498155584332753]}}, {"type": "Feature", "properties": {"norad_id": 66995, "name": "2025-292C", "group": "last-30-days", "lat": 31.647107200838157, "lon": 68.310177567751, "alt_km": 560.7269470135716, "timestamp": "2025-12-26T15:29:38.169679+00:00", "meta": {"OBJECT_NAME": "2025-292C", "OBJECT_ID": "2025-292C", "EPOCH": "2025-12-25T05:50:07.257120", "MEAN_MOTION": 15.04668363, "ECCENTRICITY": 0.0014688, "INCLINATION": 97.6495, "RA_OF_ASC_NODE": 71.6733, "ARG_OF_PERICENTER": 227.9665, "MEAN_ANOMALY": 132.0312, "EPHEMERIS_TYPE": 0, "CLASSIFICATION_TYPE": "U", "NORAD_CAT_ID": 66995, "ELEMENT_SET_NO": 999, "REV_AT_EPOCH": 227, "BSTAR": 0.00041226, "MEAN_MOTION_DOT": 5.751e-05, "MEAN_MOTION_DDOT": 0}, "tle": {"line1": "1 66995U 25292C   25359.24313955  .00005751  00000+0  41226-3 0  9996", "line2": "2 66995  97.6495  71.6733 0014688 227.9665 132.0312 15.04668363  2273"}}, "geometry": {"type": "Point", "coordinates": [68.310177567751, 31.647107200838157]}}, {"type": "Feature", "properties": {"norad_id": 66996, "name": "2025-292D", "group": "last-30-days", "lat": 33.621286262597124, "lon": 67.93473781596225, "alt_km": 559.772089639473, "timestamp": "2025-12-26T15:29:38.169688+00:00", "meta": {"OBJECT_NAME": "2025-292D", "OBJECT_ID": "2025-292D", "EPOCH": "2025-12-25T05:49:36.025248", "MEAN_MOTION": 15.04678565, "ECCENTRICITY": 0.0013797, "INCLINATION": 97.6491, "RA_OF_ASC_NODE": 71.6729, "ARG_OF_PERICENTER": 230.5158, "MEAN_ANOMALY": 129.4848, "EPHEMERIS_TYPE": 0, "CLASSIFICATION_TYPE": "U", "NORAD_CAT_ID": 66996, "ELEMENT_SET_NO": 999, "REV_AT_EPOCH": 227, "BSTAR": 0.00027339, "MEAN_MOTION_DOT": 3.792e-05, "MEAN_MOTION_DDOT": 0}, "tle": {"line1": "1 66996U 25292D   25359.24277807  .00003792  00000+0  27339-3 0  9994", "line2": "2 66996  97.6491  71.6729 0013797 230.5158 129.4848 15.04678565  2271"}}, "geometry": {"type": "Point", "coordinates": [67.93473781596225, 33.621286262597124]}}, {"type": "Feature", "properties": {"norad_id": 66997, "name": "2025-292E", "group": "last-30-days", "lat": 38.53905986019038, "lon": 66.92119253371717, "alt_km": 559.1583892182662, "timestamp": "2025-12-26T15:29:38.169698+00:00", "meta": {"OBJECT_NAME": "2025-292E", "OBJECT_ID": "2025-292E", "EPOCH": "2025-12-26T07:20:29.015232", "MEAN_MOTION": 15.04780018, "ECCENTRICITY": 0.00142932, "INCLINATION": 97.6508, "RA_OF_ASC_NODE": 72.7315, "ARG_OF_PERICENTER": 227.9435, "MEAN_ANOMALY": 132.0576, "EPHEMERIS_TYPE": 0, "CLASSIFICATION_TYPE": "U", "NORAD_CAT_ID": 66997, "ELEMENT_SET_NO": 999, "REV_AT_EPOCH": 242, "BSTAR": 0.0003284431, "MEAN_MOTION_DOT": 4.581e-05, "MEAN_MOTION_DDOT": 0}, "tle": {"line1": "1 66997U 25292E   25360.30589138  .00004581  00000+0  32844-3 0  9991", "line2": "2 66997  97.6508  72.7315 0014293 227.9435 132.0576 15.04780018  2426"}}, "geometry": {"type": "Point", "coordinates": [66.92119253371717, 38.53905986019038]}}, {"type": "Feature", "properties": {"norad_id": 66998, "name": "2025-292F", "group": "last-30-days", "lat": 48.14633161466176, "lon": 64.44315651155011, "alt_km": 558.0132073766454, "timestamp": "2025-12-26T15:29:38.169708+00:00", "meta": {"OBJECT_NAME": "2025-292F", "OBJECT_ID": "2025-292F", "EPOCH": "2025-12-26T05:42:11.711520", "MEAN_MOTION": 15.04964955, "ECCENTRICITY": 0.00154194, "INCLINATION": 97.6528, "RA_OF_ASC_NODE": 72.6717, "ARG_OF_PERICENTER": 228.9994, "MEAN_ANOMALY": 130.99, "EPHEMERIS_TYPE": 0, "CLASSIFICATION_TYPE": "U", "NORAD_CAT_ID": 66998, "ELEMENT_SET_NO": 999, "REV_AT_EPOCH": 242, "BSTAR": 0.00043442089, "MEAN_MOTION_DOT": 6.113e-05, "MEAN_MOTION_DDOT": 0}, "tle": {"line1": "1 66998U 25292F   25360.23763555  .00006113  00000+0  43442-3 0  9990", "line2": "2 66998  97.6528  72.6717 0015419 228.9994 130.9900 15.04964955  2428"}}, "geometry": {"type": "Point", "coordinates": [64.44315651155011, 48.14633161466176]}}, {"type": "Feature", "properties": {"norad_id": 66999, "name": "2025-292G", "group": "last-30-days", "lat": 51.831778017476516, "lon": 63.22843686255408, "alt_km": 556.9488187616444, "timestamp": "2025-12-26T15:29:38.169720+00:00", "meta": {"OBJECT_NAME": "2025-292G", "OBJECT_ID": "2025-292G", "EPOCH": "2025-12-26T05:41:13.121088", "MEAN_MOTION": 15.05029277, "ECCENTRICITY": 0.00149229, "INCLINATION": 97.6537, "RA_OF_ASC_NODE": 72.6742, "ARG_OF_PERICENTER": 230.961, "MEAN_ANOMALY": 129.0289, "EPHEMERIS_TYPE": 0, "CLASSIFICATION_TYPE": "U", "NORAD_CAT_ID": 66999, "ELEMENT_SET_NO": 999, "REV_AT_EPOCH": 242, "BSTAR": 0.00043771609, "MEAN_MOTION_DOT": 6.17e-05, "MEAN_MOTION_DDOT": 0}, "tle": {"line1": "1 66999U 25292G   25360.23695742  .00006170  00000+0  43772-3 0  9992", "line2": "2 66999  97.6537  72.6742 0014922 230.9610 129.0289 15.05029277  2422"}}, "geometry": {"type": "Point", "coordinates": [63.22843686255408, 51.831778017476516]}}]}